0 METEOR 2-17 DEB
1 31399U 88005U   13284.07842594  .00001747  00000-0  13946-2 0  3520
2 31399 082.5163 036.5179 0006076 236.9061 123.1687 13.90456863347477
0 METEOR 2-17 DEB
1 31399U 88005U   13285.58956436  .00001814  00000-0  14480-2 0  3538
2 31399 082.5165 035.2994 0006700 230.8944 129.1746 13.90463836347680
0 METEOR 2-17 DEB
1 31399U 88005U   13288.03616755  .00001875  00000-0  14974-2 0  3544
2 31399 082.5147 033.3303 0005885 216.1260 143.9545 13.90473876348029
0 METEOR 2-17 DEB
1 31399U 88005U   13290.98645623  .00002131  00000-0  17025-2 0  3554
2 31399 082.5164 030.9531 0006270 202.4360 157.7123 13.90490555348435
0 METEOR 2-17 DEB
1 31399U 88005U   13293.00125454  .00002185  00000-0  17457-2 0  3564
2 31399 082.5169 029.3272 0007256 196.5695 163.5378 13.90500398348718
0 METEOR 2-17 DEB
1 31399U 88005U   13295.51974543  .00002381  00000-0  19025-2 0  3575
2 31399 082.5151 027.2928 0007041 202.3220 157.8042 13.90515074349066
